Satellite: RS-30
Catalog number: 32953
Epoch time:      08297.38886356
Element set:     139
Inclination:      082.5037 deg
RA of node:       043.8560 deg
Eccentricity:    0.0018519
Arg of perigee:   338.2496 deg
Mean anomaly:     021.7797 deg
Mean motion:   12.42997857 rev/day
Decay rate:        1.0e-07 rev/day^2
Epoch rev:            1897
Checksum:              345

/EX




From r.hoad at att.net  Thu Oct 23 19:50:22 2008
From: r.hoad at att.net (Ray Hoad)
Date: Thu, 23 Oct 2008 21:50:22 -0500
Subject: [keps]  orb08297.2l.amsat
Message-ID: <490137EE.4090904@att.net>

SB KEPS @ AMSAT  $ORB08297.N
2Line Orbital Elements 08297.AMSAT

HR AMSAT ORBITAL ELEMENTS FOR AMATEUR SATELLITES IN NASA FORMAT
FROM WA5QGD FORT WORTH,TX October 23, 2008
Send Subscribe/unsubscribe to KEPS at 
http://www.amsat.org/mailman/listinfo/keps
BID: ORB08297.N

DECODE 2-LINE ELSETS WITH THE FOLLOWING KEY:
1 AAAAAU 00  0  0 BBBBB.BBBBBBBB  .CCCCCCCC  00000-0  00000-0 0  DDDZ
2 AAAAA EEE.EEEE FFF.FFFF GGGGGGG HHH.HHHH III.IIII JJ.JJJJJJJJKKKKKZ
KEY: A-CATALOGNUM B-EPOCHTIME C-DECAY D-ELSETNUM E-INCLINATION F-RAAN
G-ECCENTRICITY H-ARGPERIGEE I-MNANOM J-MNMOTION K-ORBITNUM Z-CHECKSUM

TO ALL RADIO AMATEURS BT

AO-07
1 07530U 74089B   08296.66471049 -.00000027  00000-0  10000-3 0 03094
2 07530 101.4551 323.8453 0011954 014.0397 346.1004 12.53574527552951
AO-10
1 14129U 83058B   08296.87896683 -.00000165  00000-0  10000-3 0  5781
2 14129 026.0297 189.5418 5960427 167.3579 219.2459 02.05869307190734
UO-11
1 14781U 84021B   08296.58930616 -.00000256  00000-0 -26837-4 0 07947
2 14781 098.1423 332.4426 0009599 029.2446 330.9292 14.79669409322698
RS-15
1 23439U 94085A   08296.90719213 -.00000039  00000-0  10000-3 0 01948
2 23439 064.8167 288.5196 0145767 098.0762 263.6728 11.27552487569361
FO-29
1 24278U 96046B   08297.79843357 -.00000055  00000-0 -17755-4 0  8888
2 24278 098.5771 197.1990 0349770 242.5691 113.9471 13.52939629601784
SO-33
1 25509U 98061B   08296.47557959  .00000190  00000-0  27664-4 0 03095
2 25509 031.4325 316.6168 0354311 060.1397 303.3951 14.28230448521823
AO-40
1 26609U 00072B   08296.95933999 -.00000407  00000-0  10000-3 0  1418
2 26609 007.9800 053.4363 7938245 136.6768 324.5867 01.25585453 36640
VO-52
1 28650U 05017B   08296.31559253 -.00000029  00000-0  28807-5 0 00636
2 28650 097.7750 359.3417 0028351 086.7565 273.6861 14.81510966187422
PO-63
1 29712U 07001D   08297.72727790  .00000654  00000-0  92537-4 0  9069
2 29712 097.8611 353.4123 0013809 328.5226 031.5159 14.80308504 96489
AO-16
1 20439U 90005D   08296.46657763  .00000010  00000-0  19065-4 0 04475
2 20439 098.2470 270.1259 0011258 153.5509 206.6255 14.31805840979130
LO-19
1 20442U 90005G   08297.61074273 -.00000012  00000-0  10506-4 0  3705
2 20442 098.2153 279.3447 0012127 147.6935 212.4996 14.32043364979453
AO-27
1 22825U 93061C   08296.54372049  .00000104  00000-0  57346-4 0   891
2 22825 098.4024 251.8922 0007583 242.5483 117.4924 14.29249986785965
IO-26
1 22826U 93061D   08297.41551610  .00000002  00000-0  17368-4 0  8033
2 22826 098.3960 253.5868 0008085 237.8634 122.1765 14.29499446786184
GO-32
1 25397U 98043D   08297.77223891  .00000002  00000-0  19228-4 0  7294
2 25397 098.3523 326.5081 0000732 176.0345 184.0846 14.23149653534507
NO-44
1 26931U 01043C   08297.59944377 -.00000170  00000-0 -34071-4 0    83
2 26931 067.0526 313.8482 0007069 258.4544 101.5760 14.29535838368760
SO-50
1 27607U 02058C   08297.53249494  .00000035  00000-0  27502-4 0  7292
2 27607 064.5602 023.8453 0085366 254.5658 104.6000 14.71388838313857
CO-55
1 27844U 03031E   08296.49762961  .00000011  00000-0  25549-4 0 04234
2 27844 098.7168 303.0098 0010629 106.7841 253.4501 14.20601761275512
CO-57
1 27848U 03031J   08296.01979410  .00000014  00000-0  26727-4 0 03753
2 27848 098.7176 301.6141 0010342 111.2207 249.0053 14.20409272275412
AO-51
1 28375U 04025K   08296.56894471  .00000007  00000-0  14407-4 0  2276
2 28375 098.0645 313.9388 0084303 125.6358 235.2724 14.40621460226746
CO-56
1 28941U 06005C   08297.81725096  .00024926  27752-5  16308-3 0  4873
2 28941 098.1183 066.8187 0144453 291.7468 066.8447 15.63221857150090
CP3
1 31128U 07012M   08296.61685571 -.00000048  00000-0  00000-0 0 04649
2 31128 098.0241 354.5705 0101881 301.1673 057.9580 14.51983675080427
CP4
1 31132U 07012Q   08296.64668180 -.00000067  00000-0 -41608-5 0 04471
2 31132 098.0292 357.3899 0084646 293.0692 066.1578 14.55150278080486
CO-65
1 32785U 08021C   08297.72605516 -.00000004  00000-0  63206-5 0  1904
2 32785 097.9793 357.2305 0016234 079.9750 280.3290 14.81404509 26434
NOAA-10
1 16969U 86073A   08296.52426254  .00000005  00000-0  20359-4 0 03374
2 16969 098.7151 318.1990 0012389 166.6880 193.4639 14.27370883149601
NOAA-11
1 19531U 88089A   08296.31710188 -.00000072  00000-0 -14596-4 0 03686
2 19531 098.7946 023.8490 0012309 067.7343 292.5173 14.14879577035881
NOAA-12
1 21263U 91032A   08296.94481048  .00000018  00000-0  26349-4 0 09023
2 21263 098.7725 298.9203 0013239 112.4011 247.8572 14.25550773906598
MET-3/5
1 21655U 91056A   08296.89756502  .00000051  00000-0  10000-3 0 05218
2 21655 082.5595 014.1495 0014604 057.6017 302.6516 13.17015012826392
MET-2/21
1 22782U 93055A   08296.33788139  .00000006  00000-0 -74819-5 0 02837
2 22782 082.5519 010.7008 0021036 295.3822 064.5149 13.83633140764718
OKEAN-4
1 23317U 94066A   08297.69163946  .00000102  00000-0  95721-5 0  7272
2 23317 082.5400 195.1618 0023892 065.4021 294.9706 14.82644220757324
NOAA-14
1 23455U 94089A   08296.72770738 -.00000231  00000-0 -98503-4 0 03581
2 23455 098.9345 008.9670 0010039 140.4060 219.7841 14.13749672712373
NOAA-15
1 25338U 98030A   08296.61269444 -.00000111  00000-0 -29140-4 0 06703
2 25338 098.5668 285.3041 0011281 034.5207 325.6700 14.24728336542949
RESURS
1 25394U 98043A   08297.67842981 -.00000002  00000-0  16918-4 0   520
2 25394 098.3705 335.6895 0001382 146.8876 213.2389 14.24173588534733
FENGYUN1
1 25730U 99025A   08296.92075760  .00000547  00000-0  34743-3 0 05988
2 25730 098.7353 268.4513 0020231 162.9564 197.2290 14.07818816486938
OKEAN-0
1 25860U 99039A   08297.52558888  .00000022  00000-0  10557-4 0  5055
2 25860 097.7630 282.4808 0000694 097.6912 262.4382 14.73540794498293
NOAA-16
1 26536U 00055A   08296.64091952 -.00000288  00000-0 -13054-3 0 01441
2 26536 099.1687 288.6830 0009854 225.7159 134.3204 14.12498191416767
NOAA-17
1 27453U 02032A   08296.72362974 -.00000031  00000-0  50422-5 0 01459
2 27453 098.5195 357.5637 0012768 097.1978 263.0665 14.24010918328956
NOAA-18
1 28654U 05018A   08296.74694766  .00000393  00000-0  24203-3 0 06326
2 28654 098.8790 236.1643 0013880 316.4758 043.5283 14.11203952176464
HUBBLE
1 20580U 90037B   08296.92533654  .00000403  00000-0  18325-4 0 02483
2 20580 028.4695 210.0651 0003591 296.7058 063.3162 15.00420172814186
PO-34
1 25520U 98064B   08296.67566415  .00000415  00000-0  10603-4 0 01172
2 25520 028.4589 045.2155 0005780 231.7835 128.2235 15.17245403552549
ISS
1 25544U 98067A   08297.83084929  .00009745  00000-0  76079-4 0  5027
2 25544 051.6421 076.8556 0003245 262.6192 232.9102 15.72427686568770
CO-58
1 28895U 05043F   08296.34633734  .00000214  00000-0  54395-4 0 01508
2 28895 098.0804 187.2416 0018475 015.1944 344.9818 14.59707391159032
FALCON
1 30776U 07006E   08297.77645523  .00000401  00000-0  32173-4 0  4238
2 30776 035.4331 093.5788 0001682 358.2587 001.8119 15.03081947 89509
MAST
1 31126U 07012K   08296.60075202  .00000074  00000-0  27664-4 0  4434
2 31126 098.0234 355.8447 0093945 297.4746 061.6942 14.53452313 80520
CAPE1
1 31130U 07012P   08297.64388850 -.00000069  00000-0 -47547-5 0  4361
2 31130 098.0244 355.5608 0101766 298.0117 061.0802 14.51999683 80367
COMPASS
1 32787U 08021E   08297.71883598  .00000093  00000-0  18698-4 0  1814
2 32787 097.9753 357.1453 0017028 081.4199 278.8927 14.81480980 26438
AAUSAT2
1 32788U 08021F   08296.89520045  .00000121  00000-0  22182-4 0 01813
2 32788 097.9763 356.3498 0017003 085.2486 275.0636 14.81593254026316
DO-64
1 32789U 08021G   08296.84116879  .00000265  00000-0  40614-4 0 01982
2 32789 097.9774 356.3398 0016893 083.6551 276.6577 14.81505052026308
CO-66
1 32791U 08021J   08297.80360672  .00000306  00000-0  45940-4 0  1763
2 32791 097.9777 357.2518 0017367 079.0063 281.3104 14.81332024 26410
RS-30
1 32953U 08025A   08297.38886356  .00000010  00000-0  00000 0 0  1396
2 32953 082.5037 043.8560 0018519 338.2496 021.7797 12.42997857 18976
/EX





From r.hoad at att.net  Thu Oct 30 19:33:19 2008
From: r.hoad at att.net (Ray Hoad)
Date: Thu, 30 Oct 2008 21:33:19 -0500
Subject: [keps]  orb08304.amsat
Message-ID: <490A6E6F.6090906@att.net>

SB KEPS @ AMSAT  $ORB08304.O
Orbital Elements  08304.OSCAR

HR AMSAT ORBITAL ELEMENTS FOR OSCAR SATELLITES
FROM WA5QGD FORT WORTH,TX October 30, 2008
Send Subscribe/unsubscribe to KEPS at 
http://www.amsat.org/mailman/listinfo/keps
BID: ORB08304.O
TO ALL RADIO AMATEURS BT

